ONEWEB-0029             
1 45445U 20020X   25262.92642448  .00000503  00000+0  13840-2 0  9997
2 45445  87.8791  74.8968 0001603  85.2823 274.8488 13.11418767267234
ONEWEB-0068             
1 45446U 20020Y   25262.91016573 -.00000094  00000+0 -30211-3 0  9990
2 45446  87.8789  74.8886 0001604  84.0878 276.0433 13.11418419267170
ONEWEB-0046             
1 45447U 20020Z   25262.97812374 -.00000609  00000+0 -17530-2 0  9990
2 45447  87.8786  74.8847 0001839  83.7749 276.3588 13.11417471267191
ONEWEB-0063             
1 45448U 20020AA  25262.93065685  .00000545  00000+0  15022-2 0  9993
2 45448  87.8787  74.8923 0001895  89.7695 270.3650 13.11418275267272
ONEWEB-0019             
1 45449U 20020AB  25262.90437802 -.00000302  00000+0 -88885-3 0  9996
2 45449  87.8781  74.9134 0001578  90.7098 269.4211 13.11418361267110
ONEWEB-0094             
1 45450U 20020AC  25262.94610835 -.00000039  00000+0 -13304-3 0  9992
2 45450  87.9059  59.5823 0001714  91.2191 268.9137 13.17648894270721
ONEWEB-0087             
1 45451U 20020AD  25262.94070888  .00000394  00000+0  10767-2 0  9992
2 45451  87.8792  74.8405 0001490  80.6595 279.4702 13.11417121267162
ONEWEB-0082             
1 45452U 20020AE  25262.93744774  .00000485  00000+0  13327-2 0  9990
2 45452  87.8791  74.8668 0001500  87.9830 272.1469 13.11415195267256
ONEWEB-0050             
1 45453U 20020AF  25262.98236871  .00059598  00000+0  62215-2 0  9999
2 45453  88.2860 271.6345 0003058 182.0518 178.0699 14.89433557300152
ONEWEB-0034             
1 45454U 20020AG  25262.95862564 -.00000367  00000+0 -10725-2 0  9992
2 45454  87.8787  74.8833 0001655  90.4511 269.6807 13.11413512267172
ONEWEB-0060             
1 45455U 20020AH  25262.92981894  .00000542  00000+0  14933-2 0  9996
2 45455  87.8780  74.9148 0001157  43.1406 316.9812 13.11415251267120
ONEWEB-0086             
1 45456U 20020AJ  25262.90861950 -.00000128  00000+0 -39720-3 0  9999
2 45456  87.8788  74.8906 0000915  89.0756 271.0477 13.11418246267189
ONEWEB-0088             
1 45457U 20020AK  25262.96285404 -.00000675  00000+0 -19402-2 0  9991
2 45457  87.8793  74.8267 0001748  87.0174 273.1154 13.11415152267125
ONEWEB-0102             
1 47258U 20100A   25263.10273466 -.00000208  00000+0 -61247-3 0  9990
2 47258  87.8914  44.3427 0001675 101.9544 258.1772 13.12443156229300
ONEWEB-0109             
1 47259U 20100B   25263.11083912 -.00000604  00000+0 -17136-2 0  9994
2 47259  87.8916  44.3090 0001639 101.0487 259.0826 13.12441924229138
ONEWEB-0110             
1 47260U 20100C   25262.90808948  .00000101  00000+0  24608-3 0  9999
2 47260  87.8914  44.3336 0001406  95.3714 264.7575 13.12444311229273
ONEWEB-0111             
1 47261U 20100D   25263.09139431  .00000175  00000+0  45157-3 0  9998
2 47261  87.8914  44.3145 0001670  97.7249 262.4069 13.12442117229134
ONEWEB-0114             
1 47262U 20100E   25262.89348735 -.00000373  00000+0 -10735-2 0  9990
2 47262  87.8916  44.3476 0001898 105.7069 254.4269 13.12444410229069
ONEWEB-0117             
1 47263U 20100F   25263.11408684 -.00000576  00000+0 -16378-2 0  9991
2 47263  87.8917  44.3018 0001647  95.8646 264.2671 13.12442172229109
ONEWEB-0118             
1 47264U 20100G   25262.91784307  .00000284  00000+0  75455-3 0  9994
2 47264  87.8916  44.3401 0002020  98.8998 261.2359 13.12443198229271
ONEWEB-0119             
1 47265U 20100H   25263.09786812 -.00000225  00000+0 -66178-3 0  9997
2 47265  87.8912  44.3417 0001612  97.3768 262.7544 13.12441264229274
ONEWEB-0120             
1 47266U 20100J   25263.12071200 -.00000560  00000+0 -15913-2 0  9992
2 47266  87.8919  44.3385 0001741 100.8949 259.2376 13.12442905229301
ONEWEB-0121             
1 47267U 20100K   25263.10923595 -.00000332  00000+0 -95797-3 0  9990
2 47267  87.8914  44.3072 0001503  95.0603 265.0697 13.12441272229215
ONEWEB-0122             
1 47268U 20100L   25263.10421705 -.00000146  00000+0 -44052-3 0  9998
2 47268  87.8913  44.3111 0001555 101.7161 258.4142 13.12443841229125
ONEWEB-0123             
1 47269U 20100M   25263.09950089 -.00000039  00000+0 -14292-3 0  9993
2 47269  87.8911  44.3399 0001751  95.3868 264.7460 13.12442180229265
ONEWEB-0124             
1 47270U 20100N   25263.08815396  .00000242  00000+0  63604-3 0  9990
2 47270  87.8915  44.3448 0001612  91.3297 268.8016 13.12441919229142
ONEWEB-0125             
1 47271U 20100P   25262.91295651  .00000236  00000+0  62092-3 0  9991
2 47271  87.8915  44.3420 0001878  89.3948 270.7396 13.12444575229185
ONEWEB-0126             
1 47272U 20100Q   25263.08666465  .00000300  00000+0  79879-3 0  9999
2 47272  87.8922  44.3296 0001744  99.4270 260.7056 13.12441269229276
ONEWEB-0127             
1 47273U 20100R   25263.12868552 -.00000112  00000+0 -34603-3 0  9995
2 47273  87.8917  44.3329 0001684 102.5023 257.6294 13.12445336229305
ONEWEB-0128             
1 47274U 20100S   25262.92269265  .00000410  00000+0  11037-2 0  9993
2 47274  87.8909  44.3976 0001434 101.0199 259.1091 13.12443376229298
ONEWEB-0129             
1 47275U 20100T   25262.90160193 -.00000137  00000+0 -41727-3 0  9990
2 47275  87.8915  44.3467 0002357 125.9642 234.1705 13.12445043229225
ONEWEB-0130             
1 47276U 20100U   25262.92917761  .00000406  00000+0  10940-2 0  9993
2 47276  87.8914  44.3385 0001575 100.4949 259.6357 13.12443245229196
ONEWEB-0131             
1 47277U 20100V   25262.84971089  .00000453  00000+0  12225-2 0  9998
2 47277  87.8915  44.3841 0001603  96.4134 263.7177 13.12443390229228
ONEWEB-0132             
1 47278U 20100W   25263.10761970 -.00000271  00000+0 -78886-3 0  9991
2 47278  87.8913  44.3342 0001560  92.7304 267.4003 13.12439480229159
ONEWEB-0133             
1 47279U 20100X   25263.12367332 -.00000363  00000+0 -10440-2 0  9991
2 47279  87.8900  44.3000 0001538  96.6669 263.4634 13.12442213229311
ONEWEB-0134             
1 47280U 20100Y   25262.94053471  .00000083  00000+0  19397-3 0  9996
2 47280  87.8912  44.3247 0001474 103.3617 256.7676 13.12442370229266
ONEWEB-0135             
1 47281U 20100Z   25262.91134679  .00000178  00000+0  45896-3 0  9992
2 47281  87.8915  44.3707 0001299 106.0412 254.0860 13.12443550229288
ONEWEB-0136             
1 47282U 20100AA  25262.85457920  .00000435  00000+0  11732-2 0  9990
2 47282  87.8913  44.3507 0001460 112.1113 248.0170 13.12442146229200
ONEWEB-0137             
1 47283U 20100AB  25263.11733196 -.00000622  00000+0 -17647-2 0  9994
2 47283  87.8916  44.3041 0001878  97.3677 262.7665 13.12442334229143
ONEWEB-0138             
1 47284U 20100AC  25263.09625840  .00000050  00000+0  10382-3 0  9991
2 47284  87.8914  44.3183 0001634 100.8617 259.2695 13.12442375229221
ONEWEB-0139             
1 47285U 20100AD  25262.90662870  .00000048  00000+0  97004-4 0  9999
2 47285  87.8914  44.3466 0001705  97.2990 262.8333 13.12443532229278
ONEWEB-0140             
1 47286U 20100AE  25262.93729808  .00000149  00000+0  37864-3 0  9997
2 47286  87.8913  44.3255 0001591  99.8922 260.2386 13.12441942229240
ONEWEB-0141             
1 47287U 20100AF  25262.90633965  .00000053  00000+0  11284-3 0  9995
2 47287  87.8906  44.3457 0002026  97.2644 262.8715 13.12444892229223
ONEWEB-0142             
1 47288U 20100AG  25263.12397108 -.00000261  00000+0 -75973-3 0  9995
2 47288  87.8920  44.3195 0002041 103.1712 256.9644 13.12442496229244
ONEWEB-0143             
1 47289U 20100AH  25262.90484933 -.00000040  00000+0 -14589-3 0  9995
2 47289  87.8917  44.3596 0001687  96.6693 263.4628 13.12444262229197
ONEWEB-0144             
1 47290U 20100AJ  25263.10598784 -.00000275  00000+0 -80098-3 0  9998
2 47290  87.8906  44.2944 0001778 105.1062 255.0263 13.12442289229144
ONEWEB-0145             
1 47291U 20100AK  25262.92432158  .00000437  00000+0  11797-2 0  9997
2 47291  87.8916  44.3623 0001682  99.5824 260.5495 13.12442885229316
ONEWEB-0146             
1 47292U 20100AL  25262.92107439  .00000323  00000+0  86173-3 0  9994
2 47292  87.8915  44.3497 0001540  84.4075 275.7229 13.12443947229222
ONEWEB-0147             
1 47293U 20100AM  25263.11569842 -.00000653  00000+0 -18503-2 0  9996
2 47293  87.8915  44.2889 0001438 104.9407 255.1881 13.12442582229141
ONEWEB-0115             
1 48042U 21025A   25263.04994962 -.00000214  00000+0 -62022-3 0  9992
2 48042  87.9045  13.8793 0001724  99.9623 260.1701 13.13470448218133
ONEWEB-0152             
1 48043U 21025B   25263.06350666  .00000358  00000+0  94527-3 0  9994
2 48043  87.9042  13.8906 0001624  98.6819 261.4495 13.13471461218094
ONEWEB-0153             
1 48044U 21025C   25263.04149815 -.00000169  00000+0 -49879-3 0  9997
2 48044  87.9046  13.8947 0001821 101.5216 258.6118 13.13471444218088
ONEWEB-0154             
1 48045U 21025D   25262.80956900 -.00000297  00000+0 -84692-3 0  9996
2 48045  87.9041  13.9380 0001693 100.1786 259.9534 13.13469994218016
ONEWEB-0116             
1 48046U 21025E   25262.84851209  .00000214  00000+0  55066-3 0  9997
2 48046  87.9045  13.9125 0001621  94.9090 265.2224 13.13470805218162
ONEWEB-0150             
1 48047U 21025F   25263.12951971  .00000150  00000+0  37569-3 0  9994
2 48047  87.9048  13.8515 0001955  98.4524 261.6827 13.13471577218097
ONEWEB-0107             
1 48048U 21025G   25263.05504197  .00000052  00000+0  10794-3 0  9993
2 48048  87.9043  13.8640 0001923 109.3370 250.7967 13.13470013218063
ONEWEB-0101             
1 48049U 21025H   25263.01778841 -.00000256  00000+0 -73587-3 0  9996
2 48049  87.9040  13.9102 0001713 105.7899 254.3419 13.13469519218036
ONEWEB-0113             
1 48050U 21025J   25263.06667445  .00000383  00000+0  10065-2 0  9990
2 48050  87.9044  13.8402 0001764  92.0370 268.0962 13.13977989218133
ONEWEB-0112             
1 48051U 21025K   25263.06013260  .00000313  00000+0  82331-3 0  9990
2 48051  87.9045  13.8599 0001812  99.6471 260.4863 13.13470376218135
